[{"OBJECT_NAME":"APRIZESAT 7","OBJECT_ID":"2013-066A","EPOCH":"2026-03-09T22:14:12.854688","MEAN_MOTION":14.91283287,"ECCENTRICITY":0.00359789,"INCLINATION":97.7595,"RA_OF_ASC_NODE":23.6578,"ARG_OF_PERICENTER":178.0186,"MEAN_ANOMALY":182.1181,"EPHEMERIS_TYPE":0,"CLASSIFICATION_TYPE":"U","NORAD_CAT_ID":39416,"ELEMENT_SET_NO":999,"REV_AT_EPOCH":66643,"BSTAR":0.00016772005,"MEAN_MOTION_DOT":1.633e-5,"MEAN_MOTION_DDOT":0},{"OBJECT_NAME":"FFLY03","OBJECT_ID":"2025-188E","EPOCH":"2026-03-09T23:48:31.208832","MEAN_MOTION":14.92857001,"ECCENTRICITY":0.00085476,"INCLINATION":97.7385,"RA_OF_ASC_NODE":145.8163,"ARG_OF_PERICENTER":76.1578,"MEAN_ANOMALY":284.0592,"EPHEMERIS_TYPE":0,"CLASSIFICATION_TYPE":"U","NORAD_CAT_ID":65319,"ELEMENT_SET_NO":999,"REV_AT_EPOCH":2911,"BSTAR":0.00017967425,"MEAN_MOTION_DOT":1.806e-5,"MEAN_MOTION_DDOT":0}]
